{"type": "FeatureCollection", "features": [ {"type": "Feature", "properties": {"norad_id": 43010, "name": "FENGYUN 3D", "group": "weather", "lat": -75.30777431331227, "lon": 90.8877366270695, "alt_km": 833.4480642921735, "timestamp": "2025-12-07T18:50:16.368137+00:00", "meta": {"OBJECT_NAME": "FENGYUN 3D", "OBJECT_ID": "2017-072A", "EPOCH": "2025-12-07T05:47:04.331040", "MEAN_MOTION": 14.19681484, "ECCENTRICITY": 7.555e-05, "INCLINATION": 98.9887, "RA_OF_ASC_NODE": 307.4692, "ARG_OF_PERICENTER": 199.6926, "MEAN_ANOMALY": 160.4221, "EPHEMERIS_TYPE": 0, "CLASSIFICATION_TYPE": "U", "NORAD_CAT_ID": 43010, "ELEMENT_SET_NO": 999, "REV_AT_EPOCH": 41775, "BSTAR": 0.00012659197, "MEAN_MOTION_DOT": 2.22e-06, "MEAN_MOTION_DDOT": 0}, "tle": {"line1": "1 43010U 17072A   25341.24102235  .00000222  00000+0  12659-3 0  9990", "line2": "2 43010  98.9887 307.4692 0000755 199.6926 160.4221 14.19681484417755"}}, "geometry": {"type": "Point", "coordinates": [90.8877366270695, -75.30777431331227]}}, {"type": "Feature", "properties": {"norad_id": 43013, "name": "NOAA 20 (JPSS-1)", "group": "weather", "lat": 52.57872223703866, "lon": -93.48855788494667, "alt_km": 820.8359997190037, "timestamp": "2025-12-07T18:50:16.368148+00:00", "meta": {"OBJECT_NAME": "NOAA 20 (JPSS-1)", "OBJECT_ID": "2017-073A", "EPOCH": "2025-12-07T05:03:13.048416", "MEAN_MOTION": 14.19523424, "ECCENTRICITY": 0.000212, "INCLINATION": 98.7591, "RA_OF_ASC_NODE": 277.5681, "ARG_OF_PERICENTER": 94.9588, "MEAN_ANOMALY": 265.183, "EPHEMERIS_TYPE": 0, "CLASSIFICATION_TYPE": "U", "NORAD_CAT_ID": 43013, "ELEMENT_SET_NO": 999, "REV_AT_EPOCH": 41723, "BSTAR": 0.00011112596, "MEAN_MOTION_DOT": 1.9e-06, "MEAN_MOTION_DDOT": 0}, "tle": {"line1": "1 43013U 17073A   25341.21056769  .00000190  00000+0  11113-3 0  9999", "line2": "2 43013  98.7591 277.5681 0002120  94.9588 265.1830 14.19523424417233"}}, "geometry": {"type": "Point", "coordinates": [-93.48855788494667, 52.57872223703866]}}, {"type": "Feature", "properties": {"norad_id": 43226, "name": "GOES 17", "group": "weather", "lat": -0.028223331915096146, "lon": -90.13754029712732, "alt_km": 35771.49737293021, "timestamp": "2025-12-07T18:50:16.368160+00:00", "meta": {"OBJECT_NAME": "GOES 17", "OBJECT_ID": "2018-022A", "EPOCH": "2025-12-07T06:21:41.762880", "MEAN_MOTION": 1.00270856, "ECCENTRICITY": 0.00035216, "INCLINATION": 0.4452, "RA_OF_ASC_NODE": 89.2216, "ARG_OF_PERICENTER": 184.345, "MEAN_ANOMALY": 168.6497, "EPHEMERIS_TYPE": 0, "CLASSIFICATION_TYPE": "U", "NORAD_CAT_ID": 43226, "ELEMENT_SET_NO": 999, "REV_AT_EPOCH": 2849, "BSTAR": 0, "MEAN_MOTION_DOT": -1.78e-06, "MEAN_MOTION_DDOT": 0}, "tle": {"line1": "1 43226U 18022A   25341.26506670 -.00000178  00000+0  00000+0 0  9992", "line2": "2 43226   0.4452  89.2216 0003521 184.3450 168.6497  1.00270856 28491"}}, "geometry": {"type": "Point", "coordinates": [-90.13754029712732, -0.028223331915096146]}}, {"type": "Feature", "properties": {"norad_id": 43491, "name": "FENGYUN 2H", "group": "weather", "lat": -0.09355080589193672, "lon": 78.72457082882362, "alt_km": 35798.3056208805, "timestamp": "2025-12-07T18:50:16.368172+00:00", "meta": {"OBJECT_NAME": "FENGYUN 2H", "OBJECT_ID": "2018-050A", "EPOCH": "2025-12-07T02:01:38.144064", "MEAN_MOTION": 1.0027128, "ECCENTRICITY": 0.00029085, "INCLINATION": 2.5357, "RA_OF_ASC_NODE": 81.3911, "ARG_OF_PERICENTER": 165.2418, "MEAN_ANOMALY": 299.2521, "EPHEMERIS_TYPE": 0, "CLASSIFICATION_TYPE": "U", "NORAD_CAT_ID": 43491, "ELEMENT_SET_NO": 999, "REV_AT_EPOCH": 2751, "BSTAR": 0, "MEAN_MOTION_DOT": -1.26e-06, "MEAN_MOTION_DDOT": 0}, "tle": {"line1": "1 43491U 18050A   25341.08446926 -.00000126  00000+0  00000+0 0  9997", "line2": "2 43491   2.5357  81.3911 0002908 165.2418 299.2521  1.00271280 27510"}}, "geometry": {"type": "Point", "coordinates": [78.72457082882362, -0.09355080589193672]}}, {"type": "Feature", "properties": {"norad_id": 43689, "name": "METOP-C", "group": "weather", "lat": 20.200053436145037, "lon": -137.14256394052887, "alt_km": 820.5963227960283, "timestamp": "2025-12-07T18:50:16.368183+00:00", "meta": {"OBJECT_NAME": "METOP-C", "OBJECT_ID": "2018-087A", "EPOCH": "2025-12-07T06:15:54.951552", "MEAN_MOTION": 14.2150876, "ECCENTRICITY": 0.0001563, "INCLINATION": 98.6937, "RA_OF_ASC_NODE": 39.1144, "ARG_OF_PERICENTER": 51.5994, "MEAN_ANOMALY": 308.5323, "EPHEMERIS_TYPE": 0, "CLASSIFICATION_TYPE": "U", "NORAD_CAT_ID": 43689, "ELEMENT_SET_NO": 999, "REV_AT_EPOCH": 36756, "BSTAR": 0.00015056438, "MEAN_MOTION_DOT": 2.86e-06, "MEAN_MOTION_DDOT": 0}, "tle": {"line1": "1 43689U 18087A   25341.26105268  .00000286  00000+0  15056-3 0  9994", "line2": "2 43689  98.6937  39.1144 0001563  51.5994 308.5323 14.21508760367569"}}, "geometry": {"type": "Point", "coordinates": [-137.14256394052887, 20.200053436145037]}}, {"type": "Feature", "properties": {"norad_id": 43823, "name": "GEO-KOMPSAT-2A", "group": "weather", "lat": 0.0283263948519362, "lon": 127.63187536577074, "alt_km": 35785.92329470454, "timestamp": "2025-12-07T18:50:16.368200+00:00", "meta": {"OBJECT_NAME": "GEO-KOMPSAT-2A", "OBJECT_ID": "2018-100A", "EPOCH": "2025-12-07T07:23:50.811072", "MEAN_MOTION": 1.00271386, "ECCENTRICITY": 2.497e-05, "INCLINATION": 0.0567, "RA_OF_ASC_NODE": 118.5021, "ARG_OF_PERICENTER": 80.0439, "MEAN_ANOMALY": 117.0199, "EPHEMERIS_TYPE": 0, "CLASSIFICATION_TYPE": "U", "NORAD_CAT_ID": 43823, "ELEMENT_SET_NO": 999, "REV_AT_EPOCH": 2570, "BSTAR": 0, "MEAN_MOTION_DOT": -3.39e-06, "MEAN_MOTION_DDOT": 0}, "tle": {"line1": "1 43823U 18100A   25341.30822698 -.00000339  00000+0  00000+0 0  9997", "line2": "2 43823   0.0567 118.5021 0000249  80.0439 117.0199  1.00271386 25707"}}, "geometry": {"type": "Point", "coordinates": [127.63187536577074, 0.0283263948519362]}}, {"type": "Feature", "properties": {"norad_id": 44387, "name": "METEOR-M2 2", "group": "weather", "lat": -3.7663202563192044, "lon": 140.8624405167041, "alt_km": 813.5775516070398, "timestamp": "2025-12-07T18:50:16.368220+00:00", "meta": {"OBJECT_NAME": "METEOR-M2 2", "OBJECT_ID": "2019-038A", "EPOCH": "2025-12-07T06:10:34.223520", "MEAN_MOTION": 14.24288065, "ECCENTRICITY": 0.00010844, "INCLINATION": 98.8968, "RA_OF_ASC_NODE": 320.9193, "ARG_OF_PERICENTER": 159.2672, "MEAN_ANOMALY": 200.8551, "EPHEMERIS_TYPE": 0, "CLASSIFICATION_TYPE": "U", "NORAD_CAT_ID": 44387, "ELEMENT_SET_NO": 999, "REV_AT_EPOCH": 33397, "BSTAR": 0.00016353208, "MEAN_MOTION_DOT": 3.32e-06, "MEAN_MOTION_DDOT": 0}, "tle": {"line1": "1 44387U 19038A   25341.25734055  .00000332  00000+0  16353-3 0  9991", "line2": "2 44387  98.8968 320.9193 0001084 159.2672 200.8551 14.24288065333974"}}, "geometry": {"type": "Point", "coordinates": [140.8624405167041, -3.7663202563192044]}}, {"type": "Feature", "properties": {"norad_id": 47719, "name": "ARKTIKA-M 1", "group": "weather", "lat": 62.377676284629906, "lon": 159.67543871581518, "alt_km": 38643.3843268484, "timestamp": "2025-12-07T18:50:16.368235+00:00", "meta": {"OBJECT_NAME": "ARKTIKA-M 1", "OBJECT_ID": "2021-016A", "EPOCH": "2025-12-01T02:41:41.634816", "MEAN_MOTION": 2.00613156, "ECCENTRICITY": 0.71974708, "INCLINATION": 63.1756, "RA_OF_ASC_NODE": 85.6045, "ARG_OF_PERICENTER": 269.084, "MEAN_ANOMALY": 15.7076, "EPHEMERIS_TYPE": 0, "CLASSIFICATION_TYPE": "U", "NORAD_CAT_ID": 47719, "ELEMENT_SET_NO": 999, "REV_AT_EPOCH": 3481, "BSTAR": 0, "MEAN_MOTION_DOT": -1.2e-07, "MEAN_MOTION_DDOT": 0}, "tle": {"line1": "1 47719U 21016A   25335.11228744 -.00000012  00000+0  00000+0 0  9997", "line2": "2 47719  63.1756  85.6045 7197470 269.0840  15.7076  2.00613156 34816"}}, "geometry": {"type": "Point", "coordinates": [159.67543871581518, 62.377676284629906]}}, {"type": "Feature", "properties": {"norad_id": 49008, "name": "FENGYUN 3E", "group": "weather", "lat": -41.103885671394316, "lon": 154.64468242124923, "alt_km": 832.1815905094345, "timestamp": "2025-12-07T18:50:16.368265+00:00", "meta": {"OBJECT_NAME": "FENGYUN 3E", "OBJECT_ID": "2021-062A", "EPOCH": "2025-12-07T05:57:31.163904", "MEAN_MOTION": 14.1987891, "ECCENTRICITY": 6.091e-05, "INCLINATION": 98.7476, "RA_OF_ASC_NODE": 341.8346, "ARG_OF_PERICENTER": 300.7275, "MEAN_ANOMALY": 59.3841, "EPHEMERIS_TYPE": 0, "CLASSIFICATION_TYPE": "U", "NORAD_CAT_ID": 49008, "ELEMENT_SET_NO": 999, "REV_AT_EPOCH": 22934, "BSTAR": 5.1633468e-05, "MEAN_MOTION_DOT": 6.6e-07, "MEAN_MOTION_DDOT": 0}, "tle": {"line1": "1 49008U 21062A   25341.24827736  .00000066  00000+0  51633-4 0  9999", "line2": "2 49008  98.7476 341.8346 0000609 300.7275  59.3841 14.19878910229340"}}, "geometry": {"type": "Point", "coordinates": [154.64468242124923, -41.103885671394316]}}, {"type": "Feature", "properties": {"norad_id": 51850, "name": "GOES 18", "group": "weather", "lat": -0.007506249750243451, "lon": -137.64252611745025, "alt_km": 35784.87014214645, "timestamp": "2025-12-07T18:50:16.368278+00:00", "meta": {"OBJECT_NAME": "GOES 18", "OBJECT_ID": "2022-021A", "EPOCH": "2025-12-07T06:08:05.566272", "MEAN_MOTION": 1.00272168, "ECCENTRICITY": 8.931e-05, "INCLINATION": 0.0031, "RA_OF_ASC_NODE": 52.1591, "ARG_OF_PERICENTER": 244.233, "MEAN_ANOMALY": 94.9144, "EPHEMERIS_TYPE": 0, "CLASSIFICATION_TYPE": "U", "NORAD_CAT_ID": 51850, "ELEMENT_SET_NO": 999, "REV_AT_EPOCH": 466, "BSTAR": 0, "MEAN_MOTION_DOT": 1.01e-06, "MEAN_MOTION_DDOT": 0}, "tle": {"line1": "1 51850U 22021A   25341.25561998  .00000101  00000+0  00000+0 0  9996", "line2": "2 51850   0.0031  52.1591 0000893 244.2330  94.9144  1.00272168  4660"}}, "geometry": {"type": "Point", "coordinates": [-137.64252611745025, -0.007506249750243451]}}]}